H1 CPF 01  gfz 2021 03 01 13  5602 terrasarx 
H2 0702601  6201 31698    2021 03 01 12 59 42 2021 03 06 00 00 42   120 1 1  0 0 0
H9
10 0 59277  35982.000000  0    2293555.825  -2346367.772   6046617.308
10 0 59277  36102.000000  0    2608329.644  -3072907.748   5576231.204
10 0 59277  36222.000000  0    2865262.800  -3750780.692   5007764.657
10 0 59277  36342.000000  0    3060813.169  -4367079.185   4351182.832
10 0 59277  36462.000000  0    3192726.782  -4909915.386   3618012.370
10 0 59277  36582.000000  0    3260061.093  -5368657.124   2821140.897
10 0 59277  36702.000000  0    3263181.485  -5734143.634   1974590.220
10 0 59277  36822.000000  0    3203729.625  -5998874.905   1093265.991
10 0 59277  36942.000000  0    3084565.818  -6157168.966    192689.814
10 0 59277  37062.000000  0    2909686.977  -6205285.558   -711280.716
10 0 59277  37182.000000  0    2684120.090  -6141511.374  -1602741.761
10 0 59277  37302.000000  0    2413794.347  -5966201.890  -2466031.236
10 0 59277  37422.000000  0    2105397.189  -5681783.570  -3286010.804
10 0 59277  37542.000000  0    1766214.913  -5292713.664  -4048336.633
10 0 59277  37662.000000  0    1403965.121  -4805398.297  -4739709.574
10 0 59277  37782.000000  0    1026625.844  -4228075.182  -5348102.293
10 0 59277  37902.000000  0     642264.042  -3570664.133  -5862961.125
10 0 59277  38022.000000  0     258867.054  -2844587.831  -6275379.253
10 0 59277  38142.000000  0    -115819.268  -2062567.756  -6578239.263
10 0 59277  38262.000000  0    -474442.658  -1238399.319  -6766324.886
10 0 59277  38382.000000  0    -810183.935   -386709.956  -6836401.914
10 0 59277  38502.000000  0   -1116882.496    477296.669  -6787267.270
10 0 59277  38622.000000  0   -1389146.542   1338105.164  -6619766.474
10 0 59277  38742.000000  0   -1622445.612   2180160.056  -6336780.480
10 0 59277  38862.000000  0   -1813184.692   2988139.872  -5943182.259
10 0 59277  38982.000000  0   -1958759.825   3747232.670  -5445762.516
10 0 59277  39102.000000  0   -2057592.995   4443406.711  -4853123.494
10 0 59277  39222.000000  0   -2109146.870   5063673.442  -4175541.730
10 0 59277  39342.000000  0   -2113917.822   5596336.126  -3424798.924
10 0 59277  39462.000000  0   -2073406.771   6031218.202  -2613984.780
10 0 59277  39582.000000  0   -1990068.676   6359868.276  -1757274.435
10 0 59277  39702.000000  0   -1867242.045   6575735.471   -869681.257
10 0 59277  39822.000000  0   -1709059.054   6674309.212     33207.890
10 0 59277  39942.000000  0   -1520338.358   6653223.031    935511.304
10 0 59277  40062.000000  0   -1306463.010   6512314.492   1821343.102
10 0 59277  40182.000000  0   -1073245.863   6253636.476   2675103.192
10 0 59277  40302.000000  0    -826787.235   5881424.889   3481758.992
10 0 59277  40422.000000  0    -573328.614   5402024.493   4227115.358
10 0 59277  40542.000000  0    -319106.187   4823773.895   4898069.795
10 0 59277  40662.000000  0     -70205.508   4156847.426   5482844.081
10 0 59277  40782.000000  0     167576.622   3413067.621   5971186.083
10 0 59277  40902.000000  0     388860.115   2605687.552   6354546.601
10 0 59277  41022.000000  0     588797.817   1749147.803   6626222.563
10 0 59277  41142.000000  0     763177.535    858814.109   6781468.480
10 0 59277  41262.000000  0     908507.827    -49300.151   6817573.384
10 0 59277  41382.000000  0    1022086.439   -958820.606   6733905.590
10 0 59277  41502.000000  0    1102050.207  -1853306.901   6531924.032
10 0 59277  41622.000000  0    1147405.723  -2716549.477   6215154.848
10 0 59277  41742.000000  0    1158040.182  -3532864.912   5789133.847
10 0 59277  41862.000000  0    1134711.589  -4287383.186   5261313.512
10 0 59277  41982.000000  0    1079020.588  -4966321.211   4640938.363
10 0 59277  42102.000000  0     993363.171  -5557241.283   3938890.125
10 0 59277  42222.000000  0     880864.895  -6049289.250   3167500.820
10 0 59277  42342.000000  0     745298.142  -6433403.920   2340336.551
10 0 59277  42462.000000  0     590983.115  -6702493.277   1471957.349
10 0 59277  42582.000000  0     422676.088  -6851573.922    577657.149
10 0 59277  42702.000000  0     245447.055  -6877871.271   -326813.231
10 0 59277  42822.000000  0      64549.343  -6780872.365  -1225534.461
10 0 59277  42942.000000  0    -114713.650  -6562331.568  -2102707.901
10 0 59277  43062.000000  0    -287121.712  -6226232.000  -2942939.824
10 0 59277  43182.000000  0    -447668.183  -5778703.844  -3731516.448
10 0 59277  43302.000000  0    -591684.277  -5227900.493  -4454663.957
10 0 59277  43422.000000  0    -714953.894  -4583836.359  -5099786.536
10 0 59277  43542.000000  0    -813816.517  -3858193.101  -5655679.310
10 0 59277  43662.000000  0    -885255.872  -3064098.140  -6112714.078
10 0 59277  43782.000000  0    -926972.785  -2215880.598  -6462995.456
10 0 59277  43902.000000  0    -937441.215  -1328809.703  -6700485.637
10 0 59277  44022.000000  0    -915946.904   -418821.391  -6821098.047
10 0 59277  44142.000000  0    -862607.743    497764.003  -6822760.058
10 0 59277  44262.000000  0    -778375.274   1404527.445  -6705443.566
10 0 59277  44382.000000  0    -665018.253   2285237.628  -6471165.390
10 0 59277  44502.000000  0    -525088.288   3124134.330  -6123956.993
10 0 59277  44622.000000  0    -361867.177   3906206.901  -5669803.797
10 0 59277  44742.000000  0    -179296.823   4617462.151  -5116551.698
10 0 59277  44862.000000  0      18106.616   5245177.394  -4473783.251
10 0 59277  44982.000000  0     225353.203   5778135.450  -3752662.490
10 0 59277  45102.000000  0     437092.888   6206834.973  -2965749.536
10 0 59277  45222.000000  0     647739.971   6523671.642  -2126788.102
10 0 59277  45342.000000  0     851605.847   6723086.224  -1250467.942
10 0 59277  45462.000000  0    1043036.868   6801674.159   -352165.905
10 0 59277  45582.000000  0    1216554.080   6758253.247    552329.138
10 0 59277  45702.000000  0    1366990.817   6593885.992   1447101.480
10 0 59277  45822.000000  0    1489623.816   6311857.355   2316396.412
10 0 59277  45942.000000  0    1580295.417   5917608.958   3144905.621
10 0 59277  46062.000000  0    1635524.096   5418630.594   3918044.422
10 0 59277  46182.000000  0    1652599.768   4824310.141   4622214.371
10 0 59277  46302.000000  0    1629662.480   4145747.064   5245046.333
10 0 59277  46422.000000  0    1565759.923   3395532.916   5775615.783
10 0 59277  46542.000000  0    1460886.213   2587510.553   6204628.959
10 0 59277  46662.000000  0    1315999.643   1736512.527   6524581.284
10 0 59277  46782.000000  0    1133019.494    858083.703   6729882.768
10 0 59277  46902.000000  0     914801.926    -31804.835   6816948.645
10 0 59277  47022.000000  0     665095.615   -917044.611   6784258.474
10 0 59277  47142.000000  0     388477.185  -1781681.373   6632382.407
10 0 59277  47262.000000  0      90267.257  -2610202.452   6363971.873
10 0 59277  47382.000000  0    -223571.320  -3387816.379   5983715.804
10 0 59277  47502.000000  0    -546550.171  -4100717.864   5498261.018
10 0 59277  47622.000000  0    -871785.649  -4736334.322   4916102.616
10 0 59277  47742.000000  0   -1192141.969  -5283554.502   4247444.406
10 0 59277  47862.000000  0   -1500384.703  -5732933.330   3504024.810
10 0 59277  47982.000000  0   -1789339.767  -6076864.550   2698911.809
10 0 59277  48102.000000  0   -2052055.395  -6309718.251   1846272.914
10 0 59277  48222.000000  0   -2281963.206  -6427940.614    961122.039
10 0 59277  48342.000000  0   -2473032.574  -6430112.127     59048.320
10 0 59277  48462.000000  0   -2619915.403  -6316963.102   -844066.736
10 0 59277  48582.000000  0   -2718077.676  -6091345.643  -1732337.711
10 0 59277  48702.000000  0   -2763914.741  -5758162.943  -2590162.907
10 0 59277  48822.000000  0   -2754847.148  -5324257.908  -3402505.207
10 0 59277  48942.000000  0   -2689394.219  -4798263.585  -4155159.441
10 0 59277  49062.000000  0   -2567224.030  -4190420.899  -4834999.667
10 0 59277  49182.000000  0   -2389179.648  -3512369.901  -5430202.958
10 0 59277  49302.000000  0   -2157281.848  -2776919.403  -5930447.221
10 0 59277  49422.000000  0   -1874707.964  -1997799.638  -6327080.778
10 0 59277  49542.000000  0   -1545746.856  -1189403.040  -6613260.858
10 0 59277  49662.000000  0   -1175732.724   -366519.085  -6784059.864
10 0 59277  49782.000000  0    -770959.210    455932.204  -6836540.350
10 0 59277  49902.000000  0    -338573.611   1263164.047  -6769799.851
10 0 59277  50022.000000  0     113546.250   2040781.805  -6584984.331
10 0 59277  50142.000000  0     576930.644   2775033.228  -6285272.064
10 0 59277  50262.000000  0    1042673.341   3453048.728  -5875826.269
10 0 59277  50382.000000  0    1501598.634   4063065.843  -5363714.084
10 0 59277  50502.000000  0    1944438.127   4594634.829  -4757796.009
10 0 59277  50622.000000  0    2362015.406   5038803.759  -4068584.224
10 0 59277  50742.000000  0    2745434.076   5388277.447  -3308069.300
10 0 59277  50862.000000  0    3086265.784   5637546.906  -2489519.475
10 0 59277  50982.000000  0    3376734.746   5782986.433  -1627253.163
10 0 59277  51102.000000  0    3609893.303   5822914.570   -736388.488
10 0 59277  51222.000000  0    3779783.497   5757616.769    167425.829
10 0 59277  51342.000000  0    3881580.561   5589328.388   1068291.907
10 0 59277  51462.000000  0    3911714.986   5322177.661   1950350.042
10 0 59277  51582.000000  0    3867969.847   4962091.895   2798065.506
10 0 59277  51702.000000  0    3749550.420   4516667.784   3596512.257
10 0 59277  51822.000000  0    3557123.163   3995006.052   4331640.815
10 0 59277  51942.000000  0    3292827.253   3407521.743   4990529.108
10 0 59277  52062.000000  0    2960251.403   2765730.057   5561612.353
10 0 59277  52182.000000  0    2564383.023   2082013.315   6034881.308
10 0 59277  52302.000000  0    2111531.988   1369377.786   6402052.676
10 0 59277  52422.000000  0    1609226.630    641202.360   6656708.376
99
